H1 CPF 01  gfz 2021 12 13 13  8472 terrasarx 
H2 0702601  6201 31698    2021 12 13 12 59 42 2021 12 18 00 00 42   120 1 1  0 0 0
H9
10 0 59564  69102.000000  0   -3267791.851    204296.703   6050187.835
10 0 59564  69222.000000  0   -3988674.413    533124.903   5580684.059
10 0 59564  69342.000000  0   -4634113.407    864598.305   5013015.125
10 0 59564  69462.000000  0   -5192820.246   1191502.489   4357131.535
10 0 59564  69582.000000  0   -5655144.264   1506515.862   3624546.756
10 0 59564  69702.000000  0   -6013247.908   1802369.529   2828137.561
10 0 59564  69822.000000  0   -6261248.644   2072009.969   1981918.090
10 0 59564  69942.000000  0   -6395324.127   2308760.686   1100790.658
10 0 59564  70062.000000  0   -6413776.552   2506479.241    200276.676
10 0 59564  70182.000000  0   -6317053.315   2659704.339   -703765.184
10 0 59564  70302.000000  0   -6107724.506   2763789.618  -1595427.306
10 0 59564  70422.000000  0   -5790417.846   2815021.358  -2459041.606
10 0 59564  70542.000000  0   -5371711.705   2810716.721  -3279462.853
10 0 59564  70662.000000  0   -4859989.890   2749299.118  -4042338.207
10 0 59564  70782.000000  0   -4265263.717   2630350.430  -4734358.343
10 0 59564  70902.000000  0   -3598965.698   2454638.705  -5343485.317
10 0 59564  71022.000000  0   -2873721.445   2224121.946  -5859153.220
10 0 59564  71142.000000  0   -2103105.820   1941928.438  -6272441.742
10 0 59564  71262.000000  0   -1301385.148   1612313.222  -6576219.769
10 0 59564  71382.000000  0    -483253.974   1240592.486  -6765255.992
10 0 59564  71502.000000  0     336429.887    833057.475  -6836299.125
10 0 59564  71622.000000  0    1142907.855    396869.969  -6788128.193
10 0 59564  71742.000000  0    1921781.267    -60061.086  -6621572.789
10 0 59564  71862.000000  0    2659262.584   -529219.560  -6339499.111
10 0 59564  71982.000000  0    3342415.285  -1001636.365  -5946766.518
10 0 59564  72102.000000  0    3959378.635  -1468055.936  -5450151.448
10 0 59564  72222.000000  0    4499574.988  -1919113.340  -4858242.506
10 0 59564  72342.000000  0    4953896.467  -2345520.197  -4181303.040
10 0 59564  72462.000000  0    5314865.724  -2738254.134  -3431103.418
10 0 59564  72582.000000  0    5576768.690  -3088748.458  -2620724.642
10 0 59564  72702.000000  0    5735755.134  -3389077.844  -1764334.434
10 0 59564  72822.000000  0    5789903.341  -3632135.356   -876940.604
10 0 59564  72942.000000  0    5739247.817  -3811797.103     25874.496
10 0 59564  73062.000000  0    5585767.643  -3923069.159    928233.308
10 0 59564  73182.000000  0    5333335.795  -3962214.200   1814250.569
10 0 59564  73302.000000  0    4987628.815  -3926851.575   2668323.068
10 0 59564  73422.000000  0    4556000.062  -3816029.078   3475411.930
10 0 59564  73542.000000  0    4047321.676  -3630265.772   4221313.366
10 0 59564  73662.000000  0    3471798.195  -3371565.368   4892913.160
10 0 59564  73782.000000  0    2840754.677  -3043398.173   5478418.459
10 0 59564  73902.000000  0    2166408.384  -2650652.972   5967562.609
10 0 59564  74022.000000  0    1461626.841  -2199560.974   6351780.904
10 0 59564  74142.000000  0     739678.667  -1697593.834   6624354.364
10 0 59564  74262.000000  0      13981.900  -1153337.127   6780521.201
10 0 59564  74382.000000  0    -702145.457   -576341.632   6817554.632
10 0 59564  74502.000000  0   -1395728.711     23044.698   6734806.884
10 0 59564  74622.000000  0   -2054370.528    633861.860   6533719.931
10 0 59564  74742.000000  0   -2666471.936   1244737.417   6217802.154
10 0 59564  74862.000000  0   -3221437.235   1844097.181   5792571.214
10 0 59564  74982.000000  0   -3709859.958   2420384.158   5265464.234
10 0 59564  75102.000000  0   -4123687.072   2962282.880   4645714.183
10 0 59564  75222.000000  0   -4456357.359   3458943.879   3944193.333
10 0 59564  75342.000000  0   -4702911.809   3900203.623   3173226.050
10 0 59564  75462.000000  0   -4860072.090   4276795.803   2346373.331
10 0 59564  75582.000000  0   -4926285.954   4580549.897   1478192.965
10 0 59564  75702.000000  0   -4901737.316   4804570.202    583977.630
10 0 59564  75822.000000  0   -4788321.316   4943389.537   -320521.491
10 0 59564  75942.000000  0   -4589585.708   4993096.586  -1219380.729
10 0 59564  76062.000000  0   -4310636.241   4951431.828  -2096795.106
10 0 59564  76182.000000  0   -3958011.108   4817848.716  -2937363.799
10 0 59564  76302.000000  0   -3539528.611   4593539.280  -3726366.725
10 0 59564  76422.000000  0   -3064110.684   4281424.138  -4450023.415
10 0 59564  76542.000000  0   -2541589.250   3886108.878  -5095729.994
10 0 59564  76662.000000  0   -1982500.910   3413809.848  -5652271.445
10 0 59564  76782.000000  0   -1397873.292   2872249.924  -6110008.353
10 0 59564  76902.000000  0    -799007.087   2270525.580  -6461033.584
10 0 59564  77022.000000  0    -197259.346   1618950.219  -6699296.787
10 0 59564  77142.000000  0     396167.749    928876.821  -6820698.075
10 0 59564  77262.000000  0     970430.095    212502.756  -6823151.660
10 0 59564  77382.000000  0    1515236.025   -517341.952  -6706618.134
10 0 59564  77502.000000  0    2021026.001  -1247419.293  -6473103.357
10 0 59564  77622.000000  0    2479136.628  -1964316.973  -6126627.791
10 0 59564  77742.000000  0    2881947.569  -2654688.703  -5673164.917
10 0 59564  77862.000000  0    3223009.549  -3305500.008  -5120550.393
10 0 59564  77982.000000  0    3497151.066  -3904275.565  -4478356.465
10 0 59564  78102.000000  0    3700559.040  -4439339.215  -3757735.493
10 0 59564  78222.000000  0    3830834.897  -4900045.142  -2971236.778
10 0 59564  78342.000000  0    3887024.920  -5276996.659  -2132595.401
10 0 59564  78462.000000  0    3869620.800  -5562245.704  -1256494.246
10 0 59564  78582.000000  0    3780531.181  -5749466.249   -358305.626
10 0 59564  78702.000000  0    3623023.823  -5834098.434    546183.778
10 0 59564  78822.000000  0    3401639.366  -5813458.348   1441057.310
10 0 59564  78942.000000  0    3122079.814  -5686810.798   2310558.163
10 0 59564  79062.000000  0    2791072.035  -5455400.659   3139375.846
10 0 59564  79182.000000  0    2416211.741  -5122445.391   3912922.066
10 0 59564  79302.000000  0    2005792.919  -4693088.295   4617592.235
10 0 59564  79422.000000  0    1568625.622  -4174313.074   5241007.104
10 0 59564  79542.000000  0    1113847.814  -3574822.757   5772229.966
10 0 59564  79662.000000  0     650733.427  -2904884.795   6201955.660
10 0 59564  79782.000000  0     188503.079  -2176148.022   6522666.718
10 0 59564  79902.000000  0    -263858.443  -1401435.692   6728757.785
10 0 59564  80022.000000  0    -697775.344   -594518.179   6816628.671
10 0 59564  80142.000000  0   -1105242.196    230133.249   6784744.064
10 0 59564  80262.000000  0   -1478971.026   1057605.901   6633658.423
10 0 59564  80382.000000  0   -1812521.257   1872814.504   6366006.719
10 0 59564  80502.000000  0   -2100411.236   2660775.407   5986461.591
10 0 59564  80622.000000  0   -2338209.084   3406882.552   5501656.595
10 0 59564  80742.000000  0   -2522601.750   4097180.273   4920076.893
10 0 59564  80862.000000  0   -2651441.985   4718629.530   4251917.431
10 0 59564  80982.000000  0   -2723770.849   5259361.409   3508908.794
10 0 59564  81102.000000  0   -2739815.280   5708912.142   2704112.951
10 0 59564  81222.000000  0   -2700960.489   6058433.421   1851692.782
10 0 59564  81342.000000  0   -2609698.159   6300873.825    966659.552
10 0 59564  81462.000000  0   -2469550.763   6431126.510     64602.735
10 0 59564  81582.000000  0   -2284974.452   6446139.256   -838592.519
10 0 59564  81702.000000  0   -2061243.057   6344984.060  -1727035.317
10 0 59564  81822.000000  0   -1804314.241   6128880.509  -2585120.272
10 0 59564  81942.000000  0   -1520682.500   5801173.671  -3397806.675
10 0 59564  82062.000000  0   -1217225.082   5367273.285  -4150883.552
10 0 59564  82182.000000  0    -901043.620   4834552.719  -4831217.357
10 0 59564  82302.000000  0    -579305.186   4212212.247  -5426975.669
10 0 59564  82422.000000  0    -259086.073   3511110.485  -5927826.029
10 0 59564  82542.000000  0      52778.526   2743565.947  -6325105.955
10 0 59564  82662.000000  0     349834.882   1923134.534  -6611960.691
10 0 59564  82782.000000  0     626138.855   1064369.603  -6783450.558
10 0 59564  82902.000000  0     876370.563    182565.747  -6836627.581
10 0 59564  83022.000000  0    1095933.325   -706509.102  -6770580.372
10 0 59564  83142.000000  0    1281035.371  -1586889.625  -6586446.559
10 0 59564  83262.000000  0    1428753.643  -2442691.569  -6287394.540
10 0 59564  83382.000000  0    1537079.932  -3258391.360  -5878576.286
10 0 59564  83502.000000  0    1604947.359  -4019105.594  -5367049.213
10 0 59564  83622.000000  0    1632236.793  -4710863.675  -4761663.929
10 0 59564  83742.000000  0    1619764.026  -5320866.518  -4072921.820
10 0 59564  83862.000000  0    1569246.669  -5837730.951  -3312804.006
10 0 59564  83982.000000  0    1483250.504  -6251712.449  -2494570.293
10 0 59564  84102.000000  0    1365117.850  -6554900.205  -1632531.933
10 0 59564  84222.000000  0    1218878.700  -6741379.983   -741801.725
10 0 59564  84342.000000  0    1049145.044  -6807360.196    161974.407
10 0 59564  84462.000000  0     860993.263  -6751255.968   1062898.529
10 0 59564  84582.000000  0     659835.669  -6573730.189   1945108.338
10 0 59564  84702.000000  0     451285.736  -6277689.058   2793066.557
10 0 59564  84822.000000  0     241019.286  -5868230.336   3591843.789
10 0 59564  84942.000000  0      34635.103  -5352547.725   4327386.438
10 0 59564  85062.000000  0    -162480.195  -4739796.247   4986766.794
10 0 59564  85182.000000  0    -345280.220  -4040919.557   5558410.734
10 0 59564  85302.000000  0    -509176.418  -3268444.869   6032299.012
10 0 59564  85422.000000  0    -650143.349  -2436248.420   6400138.131
10 0 59564  85542.000000  0    -764809.332  -1559300.318   6655497.394
99
